IRIDIUM 144             
1 43249U 18030A   23331.91390333  .00000311  00000+0  10396-3 0  9993
2 43249  86.3940 320.0458 0002323  88.9699 271.1763 14.34220027296510
IRIDIUM 149             
1 43250U 18030B   23331.92022712  .00000315  00000+0  10526-3 0  9998
2 43250  86.3940 320.0203 0002487  87.3891 272.7589 14.34222476296533
IRIDIUM 157             
1 43251U 18030C   23331.93924638  .00000325  00000+0  10899-3 0  9992
2 43251  86.3943 320.0447 0002015  92.1733 267.9694 14.34220322296512
IRIDIUM 140             
1 43252U 18030D   23331.88851161  .00000327  00000+0  10956-3 0  9993
2 43252  86.3942 320.0809 0002535  94.2326 265.9160 14.34221972296565
IRIDIUM 145             
1 43253U 18030E   23331.94560030  .00000314  00000+0  10492-3 0  9994
2 43253  86.3941 320.0315 0002553  86.4909 273.6579 14.34222063296503
IRIDIUM 146             
1 43254U 18030F   23331.92656332  .00000341  00000+0  11456-3 0  9995
2 43254  86.3940 320.0548 0002455  84.5301 275.6174 14.34220141296516
IRIDIUM 148             
1 43255U 18030G   23331.89487700  .00000314  00000+0  10510-3 0  9993
2 43255  86.3942 320.0971 0002281  81.6028 278.5427 14.34220039296542
IRIDIUM 142             
1 43256U 18030H   23331.93291229  .00000306  00000+0  10214-3 0  9990
2 43256  86.3940 320.0041 0002246  84.1198 276.0254 14.34222367296510
